[{"OBJECT_NAME":"STARLINK-30464","OBJECT_ID":"2023-146T","EPOCH":"2026-03-09T00:58:39.595584","MEAN_MOTION":15.03351281,"ECCENTRICITY":0.00013307,"INCLINATION":43.0003,"RA_OF_ASC_NODE":316.4432,"ARG_OF_PERICENTER":268.6034,"MEAN_ANOMALY":91.4656,"EPHEMERIS_TYPE":0,"CLASSIFICATION_TYPE":"U","NORAD_CAT_ID":57908,"ELEMENT_SET_NO":999,"REV_AT_EPOCH":13591,"BSTAR":5.903593e-5,"MEAN_MOTION_DOT":6.1e-6,"MEAN_MOTION_DDOT":0},{"OBJECT_NAME":"COSMOS 2251 DEB","OBJECT_ID":"1993-036AXJ","EPOCH":"2026-03-07T16:14:39.475392","MEAN_MOTION":15.02350149,"ECCENTRICITY":0.00052276,"INCLINATION":74.0329,"RA_OF_ASC_NODE":161.7612,"ARG_OF_PERICENTER":248.7206,"MEAN_ANOMALY":111.3424,"EPHEMERIS_TYPE":0,"CLASSIFICATION_TYPE":"U","NORAD_CAT_ID":36047,"ELEMENT_SET_NO":999,"REV_AT_EPOCH":67212,"BSTAR":0.0041103158,"MEAN_MOTION_DOT":0.00054783,"MEAN_MOTION_DDOT":0}]
